{
    "links": {
        "self": "http://www.neowsapp.com/rest/v1/neo/54054414?api_key=iIulBulltgU6a56xZRHN4H3l9WmuAYTsLGpBGhQ2"
    },
    "id": "54054414",
    "neo_reference_id": "54054414",
    "name": "(2020 RF9)",
    "designation": "2020 RF9",
    "nasa_jpl_url": "http://ssd.jpl.nasa.gov/sbdb.cgi?sstr=54054414",
    "absolute_magnitude_h": 24.593,
    "estimated_diameter": {
        "kilometers": {
            "estimated_diameter_min": 0.0320593695,
            "estimated_diameter_max": 0.0716869295
        },
        "meters": {
            "estimated_diameter_min": 32.0593694717,
            "estimated_diameter_max": 71.6869294545
        },
        "miles": {
            "estimated_diameter_min": 0.0199207625,
            "estimated_diameter_max": 0.044544179
        },
        "feet": {
            "estimated_diameter_min": 105.1816617376,
            "estimated_diameter_max": 235.1933456316
        }
    },
    "is_potentially_hazardous_asteroid": false,
    "close_approach_data": [
        {
            "close_approach_date": "2020-09-23",
            "close_approach_date_full": "2020-Sep-23 01:37",
            "epoch_date_close_approach": 1600825020000,
            "relative_velocity": {
                "kilometers_per_second": "6.1084522757",
                "kilometers_per_hour": "21990.4281926276",
                "miles_per_hour": "13663.9968955802"
            },
            "miss_distance": {
                "astronomical": "0.2014903813",
                "lunar": "78.3797583257",
                "kilometers": "30142531.867967831",
                "miles": "18729700.7949888278"
            },
            "orbiting_body": "Earth"
        }
    ],
    "orbital_data": {
        "orbit_id": "1",
        "orbit_determination_date": "2020-09-18 04:42:11",
        "first_observation_date": "2020-09-14",
        "last_observation_date": "2020-09-17",
        "data_arc_in_days": 3,
        "observations_used": 19,
        "orbit_uncertainty": "8",
        "minimum_orbit_intersection": ".200237",
        "jupiter_tisserand_invariant": "3.522",
        "epoch_osculation": "2459108.5",
        "eccentricity": ".4513219219259779",
        "semi_major_axis": "2.183855470562034",
        "inclination": "9.675901392544295",
        "ascending_node_longitude": "170.2775655697328",
        "orbital_period": "1178.784092192565",
        "perihelion_distance": "1.198233622379416",
        "perihelion_argument": "197.2149444551899",
        "aphelion_distance": "3.169477318744652",
        "perihelion_time": "2459122.059408611813",
        "mean_anomaly": "355.8589642220458",
        "mean_motion": ".3053994386116901",
        "equinox": "J2000",
        "orbit_class": {
            "orbit_class_type": "AMO",
            "orbit_class_description": "Near-Earth asteroid orbits similar to that of 1221 Amor",
            "orbit_class_range": "1.017 AU < q (perihelion) < 1.3 AU"
        }
    },
    "is_sentry_object": false
}